HIERARCHY
ROOT Hips
{
    OFFSET 6.9859232902526855 50.01128005981445 -9.886905670166016
    CHANNELS 6 Xposition Yposition Zposition Zrotation Xrotation Yrotation
    JOINT RightUpLeg
    {
        OFFSET -6.9859232902526855 0.0 0.0
        CHANNELS 3 Zrotation Xrotation Yrotation
        JOINT RightLeg
        {
            OFFSET 0.0 -25.294021606445312 0.0
            CHANNELS 3 Zrotation Xrotation Yrotation
            JOINT RightFoot
            {
                OFFSET 0.0 -24.71725845336914 0.0
                CHANNELS 3 Zrotation Xrotation Yrotation
                End Site
                {
                    OFFSET 0.0 0.0 9.886905670166016
                }
            }
        }
    }
    JOINT LeftUpLeg
    {
        OFFSET 6.9859232902526855 0.0 0.0
        CHANNELS 3 Zrotation Xrotation Yrotation
        JOINT LeftLeg
        {
            OFFSET 0.0 -25.294021606445312 0.0
            CHANNELS 3 Zrotation Xrotation Yrotation
            JOINT LeftFoot
            {
                OFFSET 0.0 -24.71725845336914 0.0
                CHANNELS 3 Zrotation Xrotation Yrotation
                End Site
                {
                    OFFSET 0.0 0.0 9.886905670166016
                }
            }
        }
    }
    JOINT Spine
    {
        OFFSET 0.0 17.402687072753906 0.0
        CHANNELS 3 Zrotation Xrotation Yrotation
        JOINT Spine3
        {
            OFFSET 0.0 18.424903869628906 0.0
            CHANNELS 3 Zrotation Xrotation Yrotation
            JOINT Neck
            {
                OFFSET 0.0 14.096488952636719 0.0
                CHANNELS 3 Zrotation Xrotation Yrotation
                End Site
                {
                    OFFSET 0.0 5.638596057891846 0.0
                }
            }
            JOINT LeftArm
            {
                OFFSET 11.567941665649414 0.0 0.0
                CHANNELS 3 Zrotation Xrotation Yrotation
                JOINT LeftForeArm
                {
                    OFFSET 19.85306167602539 0.0 0.0
                    CHANNELS 3 Zrotation Xrotation Yrotation
                    JOINT LeftHand
                    {
                        OFFSET 16.104482650756836 0.0 0.0
                        CHANNELS 3 Zrotation Xrotation Yrotation
                        End Site
                        {
                            OFFSET 6.441793441772461 0.0 0.0
                        }
                    }
                }
            }
            JOINT RightArm
            {
                OFFSET -11.567941665649414 0.0 0.0
                CHANNELS 3 Zrotation Xrotation Yrotation
                JOINT RightForeArm
                {
                    OFFSET -19.85306167602539 0.0 0.0
                    CHANNELS 3 Zrotation Xrotation Yrotation
                    JOINT RightHand
                    {
                        OFFSET -16.104482650756836 0.0 0.0
                        CHANNELS 3 Zrotation Xrotation Yrotation
                        End Site
                        {
                            OFFSET -6.441793441772461 0.0 0.0
                        }
                    }
                }
            }
        }
    }
}
MOTION
Frames: 83
Frame Time: 0.03333333333333333
-8.753132820129395 1.6411851644515991 -4.232931137084961 -0.4564647963314671 -4.730491919271551 -16.02363351332407 0.782231376113256 10.273560768376187 -7.231149864477027 2.9976551750626474 19.455725791175567 -0.36725156660469094 2.0690185772110117e-32 -2.9817700138720468e-15 7.951386703658791e-16 0.8854860629731314 7.7883502959273105 6.825315078792176 3.0312645275073757 23.660267210282726 -2.8478833420668925 7.951386703658792e-16 3.1805546814635168e-15 -5.963540027744094e-16 1.4465831851753266 10.908160239241948 -0.35781653992936246 4.4454229171003075e-09 2.3283244423884863e-08 -1.3514268814109456 -4.466706600044226 -9.433804454667598 177.49760153591185 97.5624135112543 -16.273562982359188 169.12421709389633 -1.989163723371047e-06 -2.78692043203911e-06 25.068403118782935 0.0 0.0 0.0 -94.71942644619348 -19.117421886830467 -170.0752572649079 -6.8410021249794e-07 -1.0113392580203034e-06 -22.791492421374027 -8.001082870556661e-15 7.951386703658794e-16 5.551866515516215e-32
-8.776707649230957 1.650585651397705 -4.149418354034424 -0.5518879798786751 -5.010329465395623 -15.985415646959119 0.7966680103135005 10.594271039373993 -7.921508201555031 2.7974472176347818 19.529871034193192 -0.23919622251437336 2.344887720839147e-32 -3.379339349054986e-15 7.951386703658791e-16 0.9123482361495046 8.079197613689287 7.481376218778984 3.324302758243 23.70672487676057 -3.019542240612519 0.0 0.0 -1.987846675914698e-16 1.492954195084137 11.224736194522444 -0.37093006100924225 8.28946177192049e-08 -1.9195345017539235e-08 -1.3957448800986854 -4.484777794410943 -9.441248910066102 177.412972030232 97.49394290831503 -16.26252107318963 169.1341747577802 -1.4499384658261453e-06 -3.533914346008577e-07 25.024637673900983 -3.180554681463516e-15 -3.180554681463516e-15 -6.361109362927032e-15 -94.67830003148153 -19.158158458998443 -170.0786229666372 -6.916888264887318e-07 -6.582212296102695e-07 -22.72781470876592 5.839299610499426e-15 7.951386703658794e-16 -7.951386703658794e-16
-8.775062561035156 1.6443703174591064 -4.148943901062012 -0.5409628590085797 -5.024685443422007 -15.948260525320805 0.7845945040516146 10.642419882399519 -7.884816049438365 2.844512090236702 19.54681047379967 -0.24655101998763768 6.896728590703373e-34 1.987846675914698e-16 -3.975693351829396e-16 0.9161919405732353 8.09652478552031 7.452316423514265 3.3187321146735913 23.771802124502216 -3.025268536757717 -1.5902773407317584e-15 -9.93923337957349e-17 -1.987846675914698e-16 1.5038855211489603 11.24985604602994 -0.3723628248718648 5.2533737290106956e-08 3.2342765332414753e-07 -1.4352106747455564 -4.490594532563294 -9.442520976575656 177.3938604774212 97.44179121869053 -16.16910340676963 169.14867306080706 3.896641352211624e-06 -2.6937942928186412e-06 24.956423294257625 -9.541664044390549e-15 0.0 0.0 -94.63335082790455 -19.16850467898343 -170.0791238575317 3.8631262952320384e-06 -1.6162713471531006e-06 -22.671851887173737 1.4163407565892227e-15 -7.951386703658794e-16 9.827838241752306e-33
-8.779091835021973 1.6388846635818481 -4.15054178237915 -0.5323514457462611 -5.0387301602544285 -15.91465637102783 0.7770451496615856 10.687977712630616 -7.8465354610518165 2.888231422884699 19.556916023087158 -0.2479729215775458 1.5902773407317582e-15 -1.9878466759146975e-16 1.1927080055488186e-15 0.9224842528166082 8.113566751486038 7.421020771289551 3.3148160086530525 23.821231015814103 -3.034797050616786 0.0 -9.93923337957349e-17 0.0 1.5184360398375318 11.272299886432476 -0.3735983137153556 -2.53605293964851e-07 3.1994923769047536e-07 -1.471469601364347 -4.492725130264846 -9.438248614330206 177.41449681500285 97.39163190202216 -16.115595877622898 169.1591630246141 1.4357641377979793e-06 1.3676304405744011e-06 24.889186547581943 -1.5902773407317584e-15 0.0 0.0 -94.57896682298359 -19.253463534199216 -170.0729825792781 1.4640853307379368e-06 -7.969605061731912e-07 -22.63183839621505 1.3666445896913544e-15 9.483001812217137e-33 7.95138670365879e-16
-8.784353256225586 1.6284983158111572 -4.151027679443359 -0.514785513064157 -5.062350785091437 -15.883903521809048 0.7680077355741385 10.741459783757835 -7.84106901020714 2.9062865738354233 19.556721254307107 -0.24793090004142168 -5.517382872562698e-33 1.9878466759146977e-16 3.1805546814635164e-15 0.930822300857175 8.139999989646652 7.416154899240853 3.3077663715672405 23.86072780630649 -3.0473658262298553 7.951386703658792e-16 2.758691436281349e-33 3.975693351829396e-16 1.5175629625617706 11.313231004654048 -0.37596873103700046 1.0357908846166193e-07 -4.280685654156402e-08 -1.5044763552484424 -4.485653043745525 -9.455089928981602 177.367476586521 97.3351003636613 -16.09577951550234 169.17273843380926 -4.198915888848598e-06 -2.5618440792368466e-06 24.826777051600903 7.951386703658792e-16 -2.2069531490250793e-32 -3.1805546814635168e-15 -94.51755003290303 -19.32974217027547 -170.07501113923146 -1.7485325195411092e-06 4.863766069649315e-07 -22.60879965159206 9.069550458860809e-15 6.293264839016827e-32 7.951386703658792e-16
-8.795681953430176 1.6201823949813843 -4.155413627624512 -0.510720398412014 -5.076402593560498 -15.855053450779298 0.765084782114408 10.790751362123585 -7.817684834277574 2.94168992205393 19.558739575314508 -0.2481001136182195 0.0 0.0 1.5902773407317584e-15 0.9578535042629017 8.161514755499422 7.3938223729522585 3.2921206588777605 23.886159412032228 -3.065266765267759 7.951386703658792e-16 -1.1034765745125397e-32 -1.5902773407317584e-15 1.5354565241839178 11.342990156905705 -0.3800649488241941 3.434255787531072e-08 -3.7882885791777565e-07 -1.5372035592526865 -4.475359126989758 -9.463810757853189 177.42151493245538 97.2756426049374 -16.107071306288287 169.18014418142323 1.3427376142395362e-06 -1.0795853085807068e-06 24.776120590372106 -2.3854160110976384e-15 3.1805546814635176e-15 3.1805546814635176e-15 -94.45408972046187 -19.527846890744033 -170.06540501482144 -3.190162233737891e-06 9.97848114394198e-08 -22.608373263557 -1.8884543421189634e-15 7.951386703658794e-16 1.3103784322336408e-32
-8.806591987609863 1.6184147596359253 -4.159379482269287 -0.49304883278406425 -5.092627399179641 -15.83331403790867 0.7614277648520388 10.825232997264273 -7.805246161981142 2.953862197006642 19.553704683126064 -0.2478532380918266 0.0 0.0 -4.373262687012336e-15 0.9671483800790186 8.172987997106091 7.382155850173961 3.2867792993010787 23.914306009357315 -3.079784617398197 0.0 0.0 1.5902773407317584e-15 1.5366904336687952 11.375380347656927 -0.3830005447180602 1.906650822379231e-07 -4.0434482052534616e-08 -1.5625860512493777 -4.463101420239179 -9.480638368023014 177.41839037048206 97.21687837492553 -16.128385583337238 169.17476947085166 -6.195611062943642e-06 -4.632656382880554e-06 24.749331801499768 -1.5902773407317584e-15 -4.4139062980501586e-32 3.1805546814635168e-15 -94.38065585531847 -19.653046130473463 -170.04697651149004 -2.3962019918338164e-06 -1.9299975291678955e-06 -22.62687799476417 -8.498044539535334e-15 0.0 0.0
-8.822296142578125 1.6181279420852661 -4.165703773498535 -0.4784368324963812 -5.1072307959405014 -15.818264549791648 0.7657259155485425 10.855024628028227 -7.800380022749677 2.961119597339686 19.543668508563005 -0.2491669750486645 2.069018577211012e-33 -1.9878466759146975e-16 1.1927080055488184e-15 0.9852481981819453 8.18213624154198 7.375976070957585 3.269666867666051 23.93195079134481 -3.0883154095014635 7.951386703658792e-16 -2.758691436281349e-33 -3.975693351829396e-16 1.540165948028313 11.407753555543042 -0.3857350671098742 -3.018052395603911e-07 6.479691706690558e-07 -1.5826085966658565 -4.446797426275754 -9.501868806798546 177.42806856153652 97.15294998249566 -16.184518938637023 169.16225172620628 -1.7268625720264233e-06 -6.458687731281076e-06 24.735637976446434 7.951386703658792e-15 3.1805546814635168e-15 -2.2069531490250793e-31 -94.30566856517216 -19.75745839245792 -170.0249793626854 -5.02492330903967e-06 6.605097589379339e-07 -22.659221332007714 1.5654292572828246e-15 -7.951386703658792e-16 1.0862347530357812e-32
-8.836529731750488 1.6136646270751953 -4.1712565422058105 -0.4454779939707578 -5.126171158399877 -15.80431776385364 0.7553280614989044 10.88239313814648 -7.806615914968379 2.958371405455399 19.52382680019012 -0.25803660392353656 1.5902773407317584e-15 -3.1805546814635168e-15 1.5902773407317584e-15 0.9820859516312072 8.188217961292606 7.378092960099541 3.269192210849153 23.943938815369343 -3.09332631900407 -3.4138806523981697e-32 3.2799470152592526e-15 1.1927080055488192e-15 1.519452857038215 11.442495376361821 -0.3882783942888814 1.0248092807328053e-08 3.9618038401267766e-07 -1.6005473898424345 -4.427671673353731 -9.53262461477579 177.3861095308796 97.09768506545556 -16.24914311986477 169.14159924871043 3.0177123511247853e-06 -2.140141665552457e-06 24.74785106325814 7.156248033292914e-15 1.9862578341225716e-31 3.1805546814635168e-15 -94.22635588883041 -19.78938700697579 -170.00203470474952 3.0024797597378737e-06 -1.1179835265852389e-06 -22.708145197610996 -2.459960261444439e-15 -7.951386703658792e-16 7.951386703658792e-16
-8.857197761535645 1.6144063472747803 -4.180180072784424 -0.4324754094209559 -5.134481570827943 -15.79403838471 0.7741976181043945 10.897571995045526 -7.792166254615674 2.956355603397508 19.512138647438128 -0.2534245265584348 -4.4139062980501586e-32 -3.1805546814635164e-15 -1.5902773407317582e-15 1.0104504498402338 8.18455942917432 7.36118817751009 3.252824963000874 23.969405757345555 -3.1119517150168376 -5.344964657795114e-33 3.0811623476677826e-15 1.9878466759146985e-16 1.522024250482923 11.46716848281895 -0.38941496479887355 3.5798968542491277e-07 9.749859966826927e-07 -1.6174745852753538 -4.405981648204636 -9.553512220861416 177.39807387801375 97.03064475043257 -16.324204528950833 169.1038602566813 -1.7793877483094051e-06 -6.188947986746965e-07 24.790013843183903 6.3611093629270335e-15 -3.1805546814635168e-15 -3.1805546814635168e-15 -94.16123557421105 -19.824726235729518 -169.9669809218288 -2.702210677407077e-06 -1.5272913414051287e-07 -22.78413768456561 -4.050237602176197e-15 2.8104169007116245e-32 -7.951386703658792e-16
-8.883532524108887 1.6119383573532104 -4.190851211547852 -0.4150326988419878 -5.147272389744126 -15.787883551407429 0.7975241193004083 10.916726451139478 -7.803990638692333 2.943544224494999 19.487950874571077 -0.26084334504066586 -8.276074308844047e-33 1.987846675914698e-16 4.770832022195275e-15 1.0347976367865477 8.184723959953836 7.362152178587261 3.2343807016043207 23.96909555166123 -3.115673598896185 -1.5902773407317582e-15 -3.1805546814635164e-15 7.95138670365879e-16 1.5136031528510914 11.498594043136293 -0.39081146858917204 1.8916252154792578e-07 -4.920502590382658e-07 -1.6245806672800027 -4.3914186934029456 -9.587586113996645 177.36470369844702 96.97375426531637 -16.379016166222712 169.0591660600074 -3.675393333017701e-06 1.7443693495897573e-06 24.86928181528893 0.0 3.1805546814635168e-15 0.0 -94.10075027333745 -19.760259420475947 -169.92069998147306 -9.466633609168824e-07 2.82123691529258e-07 -22.904809453718077 5.491426442214353e-15 7.951386703658792e-16 -3.8104425463636134e-32
-8.915483474731445 1.6039036512374878 -4.203371524810791 -0.41095386135494527 -5.1538516075670495 -15.779036396888639 0.827320453637571 10.946221970471782 -7.802359344271522 2.951098744352214 19.467765328103553 -0.2708043648166893 1.5902773407317588e-15 1.1034765745125397e-32 7.951386703658794e-16 1.091964995115508 8.193081990833042 7.346069367706072 3.2032937700441093 23.96788115643229 -3.1338799883276445 7.951386703658792e-16 3.0811623476677818e-15 -3.975693351829396e-16 1.5147917055786322 11.523268386798696 -0.3935458870452081 2.0354090675879833e-07 3.0124661008967597e-07 -1.636393273674899 -4.363219125292409 -9.627687145979158 177.35779342670745 96.91587095813809 -16.56120355378307 169.0042432055324 2.2422831064480855e-06 -4.462575629067648e-06 24.976529115175662 1.5902773407317584e-15 -4.4139062980501586e-32 -3.1805546814635168e-15 -94.05646948927718 -19.762151920300646 -169.8757742886675 3.0914654538865634e-06 -1.9181763415418908e-06 -23.045761245603497 1.7393658414253603e-15 7.951386703658791e-16 -1.2069275033730902e-32
-8.950385093688965 1.601110577583313 -4.217522621154785 -0.4064771472059295 -5.157597020926437 -15.776126757431383 0.8712041644638133 10.960080445203264 -7.802369914928452 2.944858475001819 19.442887008445982 -0.2742681364631942 6.896728590703373e-33 1.9878466759146985e-16 -3.975693351829397e-15 1.1495839184562562 8.18600568941048 7.33548791887882 3.183199421885919 23.97450295244622 -3.1546608083962084 -7.951386703658792e-16 9.93923337957349e-17 -5.963540027744094e-16 1.510948521491935 11.541305345348635 -0.3922805814039892 4.2269417170734e-08 1.1190776181038268e-07 -1.6418633806413394 -4.3320712493968685 -9.658322243516928 177.3389968229217 96.8588972210332 -16.667106267384085 168.92610027344105 9.58103566140933e-07 1.9940977425633656e-06 25.153563249529313 3.180554681463516e-15 3.1805546814635168e-15 6.361109362927033e-15 -94.03132688319097 -19.628897891219744 -169.81706860349408 -1.900506484949479e-07 1.64108067580693e-06 -23.238177273794566 -3.230250848361384e-16 7.951386703658791e-16 2.2414367919785963e-33
-8.992504119873047 1.5993993282318115 -4.232900142669678 -0.41451073546181105 -5.164481045081437 -15.780289388359549 0.928575845247743 10.97188833352239 -7.827370355120685 2.9311171282006483 19.435377446555126 -0.2789557928864031 -2.2069531490250793e-32 3.1805546814635168e-15 7.951386703658792e-16 1.2185795591282735 8.183309146049409 7.338288341995934 3.1559225765387082 23.984666523159337 -3.1743576048484585 -7.951386703658792e-16 0.0 0.0 1.5154220342498812 11.564435989555987 -0.39214255974000745 -4.8637647786559346e-08 1.9935849129812027e-07 -1.6369120348450723 -4.3181745899620525 -9.693525534344065 177.33257983762917 96.823682872775 -16.743177331096412 168.8411803463896 -1.019299838571712e-06 -2.475017507217676e-06 25.375997288112362 6.361109362927035e-15 1.7655625192200634e-31 3.1805546814635176e-15 -94.04257810579618 -19.366036878840863 -169.76022128716644 -1.8067286853342025e-06 1.8912229496731616e-06 -23.472558864151793 -7.75260203606732e-15 -5.379448300748631e-32 7.951386703658791e-16
-9.029708862304688 1.5948874950408936 -4.246612548828125 -0.4068011779521208 -5.17048511200915 -15.779925051652187 0.9686201613266859 10.988051148857418 -7.826966340712848 2.9243932380462625 19.4159098291787 -0.28162944125275624 1.5902773407317582e-15 -2.758691436281349e-32 -1.9878466759146976e-15 1.2785737364970096 8.1797927874388 7.324552004595312 3.1351933419677187 23.996683921078446 -3.2052094678738627 -1.5902773407317588e-15 1.1034765745125397e-32 -7.951386703658794e-16 1.492871429362698 11.574452439533117 -0.3891626382758077 1.7753670402245275e-07 -6.780682200199174e-07 -1.6373433340679628 -4.27901863207543 -9.726025792202947 177.3020005380103 96.8005090388312 -16.793457823171963 168.73728108641367 -1.5242229471707138e-06 5.272021532850175e-07 25.662360253915 7.951386703658791e-16 -3.1805546814635164e-15 2.2069531490250793e-32 -94.07212115840096 -19.132957214706877 -169.69913248058484 5.356319313232474e-06 -6.819879436760091e-07 -23.759401341899814 7.255640367088647e-15 0.0 0.0
-9.073885917663574 1.5992591381072998 -4.263128280639648 -0.41629256142138815 -5.177822675396559 -15.791881982220623 1.0305272207789018 10.982377526643031 -7.859674534019297 2.8959423937264224 19.425648303148286 -0.2861615134217532 1.5902773407317582e-15 1.9878466759146977e-16 -3.9756933518293955e-16 1.3426549679429143 8.167306692577883 7.333935110428562 3.124130035312763 24.019341534898174 -3.2303135432264285 -7.951386703658791e-16 1.3793457181406746e-33 -1.9878466759146977e-16 1.4926102974253048 11.586628564406277 -0.3883059184619471 2.2854375407478083e-07 2.5426623630963272e-08 -1.616840407222522 -4.266193314637401 -9.744811887423435 177.2965507359924 96.78791705840523 -16.84142543166187 168.63387191958986 6.319211908925826e-06 -1.181384389398165e-07 25.99191485868062 7.951386703658794e-16 3.1805546814635176e-15 -2.2069531490250793e-32 -94.14383515902044 -18.719005955115474 -169.63396099914095 5.7585548187954e-08 -4.6737171339468784e-08 -24.111974263720644 4.795680105644209e-15 0.0 0.0
-9.107925415039062 1.5968058109283447 -4.27468729019165 -0.3991883452781433 -5.192418496547172 -15.799207712948498 1.056189683268149 10.98825528014015 -7.873369725189882 2.874828290267273 19.42840992589963 -0.28734894667419897 -2.758691436281349e-33 -1.987846675914698e-16 -1.5902773407317584e-15 1.3802009551624765 8.161622259620264 7.334330922039894 3.1124702936066457 24.038657467919958 -3.2597705603610754 -7.951386703658792e-16 -1.3793457181406746e-32 1.987846675914698e-15 1.4502640230957518 11.588977923278323 -0.38413055176455546 8.232522712189838e-08 3.116481485160556e-07 -1.6017632502173431 -4.227787393126621 -9.760263859520757 177.24289436659305 96.79452110785937 -16.852698302896144 168.51350472373792 -1.1363647989568946e-07 7.849691794797476e-07 26.384058981612803 -7.951386703658792e-15 3.1805546814635168e-15 -3.1805546814635164e-15 -94.24665284426537 -18.280317957070125 -169.57547765876083 -1.381330219652096e-06 2.01138575775597e-06 -24.513960871266725 3.2302508483613835e-16 2.2414367919785963e-33 7.95138670365879e-16
-9.145809173583984 1.6010921001434326 -4.287893772125244 -0.3943339001418215 -5.2112614777729345 -15.81062381689773 1.0930444581050969 10.995155055482115 -7.903445488271626 2.850670967872188 19.43811426024248 -0.28466269268058614 -6.207055731633036e-33 -1.987846675914698e-16 -3.578124016646457e-15 1.424472621624433 8.160255067559149 7.347358343705864 3.1026565847552896 24.057286049465866 -3.2932942834838053 1.5902773407317584e-15 9.939233379573489e-17 -5.963540027744094e-16 1.4255321720935872 11.595476501263741 -0.38196301873345545 -5.123540900490314e-08 -4.327026130167379e-07 -1.574166944151054 -4.2044047879748705 -9.77256624748925 177.20614043090654 96.80729730062205 -16.88607939330933 168.39080980522198 8.545920120447742e-07 3.753371727439943e-06 26.847758557427706 -7.951386703658792e-16 2.2069531490250793e-32 -3.1805546814635168e-15 -94.38696834074666 -17.78769544987607 -169.50988412253616 -2.627488794835386e-06 2.1114092561441687e-06 -25.031060550347156 -2.4351121779955047e-15 0.0 0.0
-9.183629989624023 1.6008667945861816 -4.300237655639648 -0.3938074238002145 -5.2324622517738275 -15.820537949662212 1.1299165738970487 11.009979557352683 -7.932009568760945 2.829988875159138 19.453579229692473 -0.2792678748241549 -1.590277340731758e-15 -4.4139062980501586e-32 3.180554681463516e-15 1.4744068325846171 8.167806818814851 7.358772609342596 3.089112380185408 24.078610022242685 -3.331540328089539 -7.951386703658791e-16 -3.1805546814635168e-15 1.987846675914698e-15 1.4095044492465638 11.597366643835786 -0.3810689796921416 -3.4446014622260714e-07 -7.986688848498804e-07 -1.5438743855513806 -4.189969893907535 -9.787878180300591 177.18187433903802 96.83075900659155 -16.97465062283969 168.24691231687137 -3.82603170849669e-07 6.1154002168981555e-06 27.421606389915308 1.5902773407317588e-15 0.0 0.0 -94.56999464612997 -17.275450235476214 -169.43939329096594 -2.937510047666797e-06 2.4695249486712146e-08 -25.668373609205258 2.9817700138720468e-15 -4.1380371544220234e-32 -1.5902773407317584e-15
-9.216076850891113 1.6032636165618896 -4.3114094734191895 -0.3824932733931824 -5.261742798837208 -15.833041822817924 1.155065757920875 11.01520562835011 -7.981303001071031 2.7858498061566745 19.46936737359107 -0.2735299946580929 0.0 -2.782985346280577e-15 0.0 1.496993837797358 8.168641287801275 7.393546264967084 3.094916466652155 24.10197848844404 -3.360874530426828 7.951386703658792e-16 -9.93923337957349e-17 1.987846675914698e-16 1.380905993978671 11.600451158008173 -0.3796061710907079 -5.853225016465266e-09 -3.6810410023063057e-07 -1.5037390304373155 -4.179881560927896 -9.804245287494156 177.134317373283 96.86834163507902 -17.10226886171478 168.0687627869084 3.1937523922808354e-06 3.123536112228906e-06 28.218494664549223 5.565970692561154e-15 -3.1805546814635168e-15 3.1805546814635168e-15 -94.79101587168344 -16.666006662246286 -169.36702822038663 2.8960460478569396e-06 -2.640515703095104e-06 -26.47009205743468 -2.9320738469741793e-15 7.951386703658791e-16 2.034534934257495e-32
-9.245963096618652 1.6072931289672852 -4.322890281677246 -0.36904437792001166 -5.29073863301269 -15.838437859277278 1.1642426415183131 11.021805276115138 -8.018026683055457 2.764354789196102 19.477815065461662 -0.2711602579870124 1.4345195468663017e-31 3.1805546814635176e-15 -5.168401357378216e-15 1.5206369040144756 8.164353640486993 7.416360829139522 3.1012717902038514 24.1263861808612 -3.397666676660357 -7.951386703658792e-16 -6.896728590703373e-33 9.93923337957349e-16 1.357832787886964 11.588225166669204 -0.3807836651269759 3.445558877060093e-07 7.417011795099678e-07 -1.4660591957042761 -4.17948708474074 -9.809855142019057 177.09475298131517 96.92476587149115 -17.283382154386207 167.81876072879393 -1.7178332435399548e-07 1.5280647147011166e-07 29.357284351549875 3.975693351829395e-15 1.1034765745125397e-31 3.1805546814635164e-15 -95.05641901686221 -16.17117206458566 -169.2679930938462 -2.7903808171190007e-06 3.3688562774956964e-07 -27.523498283818583 -2.683593012484842e-15 7.951386703658792e-16 7.951386703658792e-16
-9.274569511413574 1.6165601015090942 -4.334716320037842 -0.36446566783403433 -5.315546841893376 -15.851435137679704 1.181907759225124 11.012105096635525 -8.045702756408534 2.735524531332313 19.520242275066476 -0.26504886772191727 0.0 0.0 1.5902773407317584e-15 1.5440426421459366 8.156980211350064 7.431390428122996 3.0981737717804334 24.15249858123997 -3.4285745206958547 0.0 0.0 3.975693351829396e-16 1.348758316582352 11.569916827523825 -0.38245601550392966 -1.6653291631794746e-07 1.3823918740091416e-07 -1.4155321714224613 -4.18783753980836 -9.81189087372049 177.0249519354857 97.00279443508664 -17.45051202132901 167.46625244856747 -2.0611067348873175e-06 4.653255296721009e-06 31.04427585006076 -7.951386703658794e-16 -6.3611093629270335e-15 -3.1805546814635168e-15 -95.36695492971305 -15.679905271347799 -169.14810280216108 1.081407026598465e-06 -2.058545825399516e-06 -28.89501677512034 4.770832022195275e-15 7.951386703658792e-16 -3.310429723537619e-32
-9.29879379272461 1.625437617301941 -4.3450117111206055 -0.3413771519439973 -5.349081380828579 -15.853972473357192 1.1686875212329657 11.002111523984022 -8.093185894052823 2.713400993538618 19.54393990291901 -0.26313292782010744 -1.5902773407317584e-15 -5.517382872562698e-33 3.975693351829396e-16 1.5506389839941606 8.140519478271928 7.468804647465206 3.120896611969642 24.179934646109373 -3.469579064218356 7.951386703658792e-16 -1.3793457181406746e-33 -1.987846675914698e-16 1.324645157117602 11.540951313204907 -0.38606720409075246 2.491085063886689e-07 5.6770183309624095e-09 -1.365709239158838 -4.1999642083474225 -9.822280124306491 176.95239025718928 97.15382099442809 -17.622116075502408 166.91065017988842 6.791213272245978e-07 -1.5532442179729217e-06 33.86080044484874 6.3611093629270335e-15 -3.1805546814635168e-15 1.7655625192200634e-31 -95.7384164956417 -15.439913518045874 -168.9793244027862 -1.8812016937519192e-07 -1.418291808067461e-07 -30.848955715032787 6.2617170291312985e-15 1.5902773407317584e-15 7.951386703658791e-16
-9.321203231811523 1.638629674911499 -4.354667663574219 -0.32572893116084467 -5.381582410548333 -15.862432465836921 1.155947276961183 10.98408206932076 -8.142326901566026 2.688962795227324 19.580924645661124 -0.2607430527835355 -1.1034765745125397e-32 -3.1805546814635168e-15 -3.975693351829396e-16 1.558668297077227 8.125627639177972 7.507113128933946 3.13784345425194 24.206453184937022 -3.505171838837498 7.951386703658792e-16 9.93923337957349e-17 3.975693351829396e-16 1.3150333512562025 11.50567772877663 -0.3913894136522818 2.250994494846953e-07 -1.8031963556979294e-07 -1.29981165129277 -4.223349631678679 -9.829934333167863 176.85401985642707 97.37238422971608 -17.710997479231825 166.12482544079592 -2.7883407571327843e-06 -2.7445511125936956e-06 37.810206251450566 5.565970692561154e-15 -3.1805546814635164e-15 6.3611093629270335e-15 -96.16329954860088 -15.224517907812803 -168.77810451332516 -1.1868777570840614e-06 8.067841947177873e-07 -33.370750876830954 6.3611093629270335e-15 0.0 0.0
-9.33551025390625 1.6575521230697632 -4.36261510848999 -0.2935442107384637 -5.416429248236508 -15.875802765134562 1.111632792256858 10.946581245342355 -8.196935515240733 2.667211275034726 19.62765847779713 -0.2581409543607634 1.5902773407317582e-15 -4.965644585306429e-32 -3.578124016646456e-15 1.5387771629112719 8.087499216580195 7.558845428261485 3.1669581853177844 24.2497085693574 -3.536578526006418 1.5902773407317584e-15 5.517382872562698e-33 3.975693351829396e-16 1.2912393367950743 11.458494534126894 -0.39612696054652624 2.1004308907293176e-07 3.6931729601115893e-07 -1.2208671633336674 -4.25435733460453 -9.835575282176501 176.7066315193078 97.66710536923304 -17.773007725848476 165.04311173707953 3.005202044077096e-06 -3.6030871504254215e-06 43.08330993149065 -6.3611093629270335e-15 3.1805546814635164e-15 6.3611093629270335e-15 -96.67384936240092 -15.033354426862708 -168.5504816862742 -6.82595355173384e-07 -1.2712165299157364e-06 -36.9074272424255 5.9635400277440935e-15 1.5902773407317582e-15 1.5902773407317582e-15
-9.349899291992188 1.6832711696624756 -4.371878623962402 -0.27166459890189126 -5.435468761675063 -15.887561897201945 1.064665218749493 10.891912444006286 -8.228161810188288 2.669407267408247 19.697463976965643 -0.25133536335079654 -1.5902773407317582e-15 -2.758691436281349e-32 1.9878466759146976e-15 1.5434181487037024 8.045161728817122 7.589655907302853 3.1838557977213617 24.287388133743274 -3.5815673226961864 -7.951386703658792e-16 9.939233379573489e-17 1.5902773407317584e-15 1.2897325958585313 11.380811699042965 -0.40262227027907016 -2.360026648950463e-07 -1.343318470331626e-07 -1.1339339588127255 -4.293063693239306 -9.81280995932425 176.5768847649199 98.02163735946294 -17.689393216046017 163.78372518202968 -2.8658473841866777e-06 1.0118868588358769e-06 49.26505390207326 -6.7586786981099735e-15 -1.8759101766713175e-31 3.1805546814635168e-15 -97.25999559985102 -14.922113378633842 -168.30342979868067 -4.4363852940589515e-07 -1.1207385258330844e-06 -41.41736863266231 -2.7829853462805764e-15 -1.590277340731758e-15 1.590277340731758e-15
-9.363436698913574 1.7115285396575928 -4.382938385009766 -0.2558304643770591 -5.445255114707215 -15.902654973839498 1.0323766318210539 10.810529822030599 -8.262155862780276 2.662742999132905 19.77687689940015 -0.2537417315096067 1.5902773407317588e-15 -3.862168010793889e-32 -2.782985346280578e-15 1.5489409845868984 7.979602450921444 7.624217016426589 3.1970805695491653 24.333529513886475 -3.6084034319476306 0.0 0.0 -5.963540027744093e-16 1.2995526350068551 11.295663138677826 -0.40859476480824797 -8.624409501597713e-08 -2.5188644051496963e-07 -1.0536318236215116 -4.329191241835239 -9.791913643322927 176.4771729644301 98.45308906595683 -17.398181449929965 162.6025536584557 5.0737874420161855e-06 -4.155074046457094e-07 56.088672913402476 -6.3611093629270335e-15 3.531125038440127e-31 -6.3611093629270335e-15 -97.86264680672059 -14.785444106250413 -168.1168938058731 -4.4051219798631224e-08 -5.278681423517242e-07 -46.62135840890208 -4.7708320221952736e-15 1.590277340731758e-15 6.620859447075238e-32
-9.377273559570312 1.743144154548645 -4.394583702087402 -0.24841405991586932 -5.4561892076349165 -15.922813055603763 1.0072254435328527 10.72015431523342 -8.289874405508595 2.6575297427865605 19.8612496720343 -0.2620933703014397 -1.5902773407317582e-15 3.578124016646456e-15 3.975693351829396e-16 1.554207316869014 7.9089366582398 7.653728539585417 3.2226270101268684 24.383352642141364 -3.631712228218665 7.951386703658792e-16 3.1805546814635168e-15 -3.975693351829396e-16 1.3185112820546154 11.20895314576396 -0.41470437788184566 -1.8157675305763807e-07 -1.1028457503783697e-07 -0.9769456556353359 -4.362448837971298 -9.765846505251956 176.36410106653204 98.99607730646365 -16.994370478055856 161.53733423900522 -1.7348261307390466e-06 2.184892067959713e-06 63.833373206970926 6.212020862233431e-15 0.0 0.0 -98.44204931942589 -14.850954694460961 -167.9873068039295 -4.8954577907449845e-06 3.5420610234756587e-06 -52.30132626415758 7.951386703658791e-16 -3.1805546814635164e-15 2.2069531490250793e-32
-9.389012336730957 1.7736151218414307 -4.4076151847839355 -0.24740581549795845 -5.466811167048819 -15.960223837342662 0.9893971112217566 10.630534926892183 -8.311713421869428 2.642884549492925 19.94154578373874 -0.28534841231105096 0.0 0.0 -3.975693351829396e-15 1.5690232748759456 7.851561162979299 7.672015840279978 3.224555855400538 24.41692560234803 -3.6354745213033386 -7.951386703658792e-16 0.0 0.0 1.3348447740351677 11.123799547391831 -0.42172049764845704 3.124803895366928e-07 -6.765692448116498e-08 -0.9022062287450698 -4.38092263086572 -9.743045518309955 176.25229255176825 99.64499345834895 -16.589011514997946 160.71768564909038 2.5284526691887983e-06 4.616342719486546e-06 72.0879569789879 1.5902773407317584e-15 0.0 0.0 -99.0291913359058 -15.056467315034412 -167.98184014671608 -3.6058296496091575e-07 3.4622861667292454e-07 -58.54788002831886 6.3611093629270335e-15 6.3611093629270335e-15 -3.531125038440127e-31
-9.402421951293945 1.8123716115951538 -4.423114776611328 -0.25915473252687277 -5.475640051633889 -16.006761619286934 0.9730141332240334 10.535697261318091 -8.33807893307937 2.6354446634179265 20.019033906012652 -0.30743768212409306 0.0 0.0 -7.951386703658791e-16 1.597855152983246 7.7910026607160106 7.69273120353587 3.223372122086698 24.457513178366643 -3.6385533631340157 7.951386703658792e-16 3.1805546814635168e-15 1.9878466759146977e-16 1.3591655851578155 11.040402831085604 -0.42770332646571196 9.313510017000854e-08 1.4276653980826514e-08 -0.8359427854436191 -4.383436911558861 -9.723806543981297 176.15929129537804 100.42744957419991 -16.157303955032344 160.2737034459771 -5.513732461893345e-07 1.0045941355741798e-06 80.67510189755096 -7.156248033292914e-15 0.0 0.0 -99.58446953825235 -15.504907542991276 -168.14486693460637 1.2970008509379424e-06 -3.360822598789844e-08 -65.07845743742028 6.3611093629270335e-15 3.1805546814635168e-15 -1.7655625192200634e-31
-9.403748512268066 1.8626782894134521 -4.438661098480225 -0.24172653043703674 -5.4840800672907255 -16.062947988380696 0.9161937340853964 10.402461830913447 -8.368019764573926 2.6103910621312307 20.11513540872703 -0.33717473753504573 -1.5902773407317584e-15 -5.517382872562698e-33 3.975693351829396e-16 1.577496216256053 7.701219503043994 7.722864907849081 3.2408517930763105 24.509634282640654 -3.637572255865366 1.5902773407317584e-15 -2.758691436281349e-33 -1.987846675914698e-16 1.3509144859672966 10.957994083067552 -0.4361279309962298 -1.6485022653840717e-07 2.781772850233251e-07 -0.7905531149396676 -4.379412003693776 -9.691231959426181 176.05444123078775 101.24781798980469 -15.663734600609622 160.26119414665902 2.2862465139449543e-07 8.756678681477276e-07 88.78091328976582 -1.5902773407317584e-15 0.0 0.0 -100.03970304161511 -15.959135446951455 -168.4729643848364 2.870366650284055e-06 -1.2370032445496391e-06 -71.53512294116088 -6.3611093629270335e-15 -6.3611093629270335e-15 -3.531125038440127e-31
-9.410604476928711 1.923649787902832 -4.458621978759766 -0.24804643673394927 -5.489200149197769 -16.118644738687788 0.8859411588353704 10.267033624425723 -8.403290428167086 2.581415266737489 20.21914120699853 -0.3593393458200131 3.1805546814635168e-15 -9.931289170612858e-32 -3.578124016646457e-15 1.5892903161670071 7.616651338226191 7.753545561821639 3.243650344996137 24.55292978112364 -3.6401476909887456 -1.590277340731758e-15 -3.180554681463516e-15 1.987846675914697e-16 1.3680906588382964 10.879639015179928 -0.44460271151167075 9.606157896118473e-08 3.5700444870092206e-07 -0.7724230154848789 -4.359235532291821 -9.65923115982254 175.99058304929824 102.08249765401322 -15.206908627570913 160.72720085276603 -6.231197512636122e-07 3.0621723822556367e-06 97.2498910406912 1.5902773407317582e-15 8.827812596100317e-32 6.361109362927033e-15 -100.44934683938082 -16.649209416689633 -169.02296376053954 -3.1297360754770608e-06 -3.755517451384185e-06 -78.12523007581838 -7.951386703658792e-15 -6.3611093629270335e-15 -4.413906298050159e-31
-9.417342185974121 2.001086711883545 -4.484694004058838 -0.2640089543990596 -5.484615244611439 -16.166330863780857 0.8550282286227316 10.073986356831334 -8.434898550331996 2.5733123248766576 20.360190422721956 -0.39558325249888154 1.5902773407317584e-15 3.1805546814635168e-15 -3.975693351829396e-16 1.6033671989681884 7.479404097400748 7.78094116535144 3.262452998096466 24.618973125061117 -3.641412604098444 -7.951386703658792e-16 -9.93923337957349e-17 3.975693351829396e-16 1.4107269142743457 10.794474930542945 -0.4563217287312093 -8.809915119647115e-08 1.74843647240142e-07 -0.79115567142235 -4.354854625612654 -9.586728083884408 175.9841337810465 102.73444809441428 -14.876595472687189 161.65190499312794 3.358532393996403e-06 2.4633516803196326e-06 105.18787826830136 -3.1805546814635176e-15 -6.361109362927035e-15 -1.7655625192200634e-31 -100.76234988888325 -17.540874200635415 -169.76262373225637 -2.6217200725725818e-06 -4.498659154533824e-06 -84.6289560320257 0.0 0.0 0.0
-9.429723739624023 2.087822437286377 -4.512279987335205 -0.2902289783771789 -5.495879742737192 -16.206606083358043 0.8368202855698226 9.889143141532593 -8.478174716381924 2.55743443620169 20.49610553381085 -0.42358399119529183 5.517382872562698e-32 -3.1805546814635168e-15 1.987846675914698e-15 1.6277902515511977 7.341519764780056 7.818744785698588 3.291652635311237 24.679311536555858 -3.664161292525548 -7.95138670365879e-16 -3.1805546814635164e-15 1.789062008323228e-15 1.4629365325508885 10.721033183798609 -0.4705651751058261 3.785308169557189e-07 5.419637755800294e-07 -0.8445846818843087 -4.358589919811158 -9.490501366706683 175.9915301093482 103.17454606983195 -14.746432209291731 163.25347616690937 2.599370719988044e-06 1.6407005484072823e-06 112.49673146870637 6.361109362927032e-15 0.0 0.0 -101.03100309406273 -18.78244311954274 -170.7878132215312 -4.786197341748764e-06 -6.879527420087619e-07 -90.89288001212987 -9.54166404439055e-15 -3.1805546814635176e-15 6.3611093629270335e-15
-9.446672439575195 2.179621458053589 -4.540324687957764 -0.32783751496291424 -5.520432146102053 -16.21954763721204 0.8308812003291975 9.6973802493988 -8.529776140332388 2.553498822240601 20.63991343244475 -0.45220785883802556 1.5902773407317584e-15 1.1034765745125397e-32 7.951386703658792e-16 1.6630241314737304 7.191136037159151 7.86827375007189 3.343106830926975 24.744840906668795 -3.707620054039475 1.1034765745125397e-32 3.1805546814635176e-15 -3.975693351829397e-16 1.5321477482262345 10.655194256360797 -0.487192915051792 9.206792840320681e-08 -5.106880953744906e-07 -0.9516721351473705 -4.354964557891121 -9.362957268031602 176.08197495094922 103.2320224477753 -15.142200598530774 165.74435995240538 1.7700194166981569e-06 -5.007370581724437e-07 118.96010163473129 6.361109362927033e-15 -1.7655625192200634e-31 -3.1805546814635164e-15 -101.32690002410753 -20.433034735756877 -172.2093142102072 -4.946406603286333e-06 -8.695151906494264e-07 -97.33906750649726 -9.54166404439055e-15 0.0 0.0
-9.463281631469727 2.2706775665283203 -4.568636417388916 -0.34419127311060166 -5.575802798936735 -16.241495882118425 0.7999471632982891 9.499999325832006 -8.587246757013231 2.5172964240707656 20.73314576241756 -0.4716741157227234 3.310429723537619e-32 3.1805546814635176e-15 -1.1927080055488192e-15 1.6673206653550543 7.030497016050506 7.932190878638698 3.389694862819397 24.795057326180533 -3.723664046232662 5.689801087330283e-33 3.279947015259251e-15 -1.9878466759146977e-16 1.5724414121841264 10.62304511453705 -0.5006292390553806 3.6295184048591406e-07 -9.936247996878136e-08 -1.097504116572253 -4.352248494916419 -9.187599574350957 176.12415120998065 102.97635599121509 -16.448771754303166 169.04268055387809 2.884274372087596e-06 -2.692974631339383e-07 124.41505881189683 -6.3611093629270335e-15 -6.3611093629270335e-15 -6.3611093629270335e-15 -101.6717656049719 -22.49333090901152 -173.9454846111795 2.8568733334317092e-06 -5.005952708384641e-07 -103.51748285237007 -3.1805546814635168e-15 1.7655625192200634e-31 -6.3611093629270335e-15
-9.490348815917969 2.364382266998291 -4.599575042724609 -0.3785908447560503 -5.651051779331567 -16.22291789123416 0.8016809428466293 9.327373637191968 -8.690091552385686 2.4842866466573947 20.80091060448678 -0.4748621644740844 0.0 0.0 -3.975693351829396e-16 1.6931991252448289 6.875076787683187 8.034237995425457 3.4761409454546643 24.80867221847186 -3.777118239286591 0.0 0.0 1.1927080055488192e-15 1.6264496361687106 10.637679394153928 -0.5156744538283834 1.3914147005945933e-07 2.4491378920179117e-07 -1.2603876913480314 -4.354714451917737 -9.005879467471985 176.13548655269653 102.81400116250742 -18.45727015563578 173.00505286804494 4.828509433372099e-06 3.584171385805885e-06 127.98233109241993 0.0 0.0 0.0 -102.09678327161552 -24.80705673839375 -175.87645526390781 -6.995618070894772e-06 -2.0214954898903727e-07 -108.99612180947246 -6.3611093629270335e-15 6.3611093629270335e-15 -6.3611093629270335e-15
-9.534672737121582 2.501922130584717 -4.652187824249268 -0.42959651357887574 -5.792030352127835 -16.07604274663162 0.8083028512868926 9.061319754193633 -8.872329610248851 2.4731921663572694 20.87783851578966 -0.455865906685396 -1.5902773407317584e-15 3.1805546814635168e-15 3.975693351829396e-16 1.7421775531212724 6.537804415901919 8.234654201445483 3.693052506329357 24.91342107339167 -3.899379988531039 0.0 -3.2799470152592518e-15 0.0 1.7356017250690714 10.718823085508328 -0.5353849575021054 1.976000866659331e-07 -3.426682364448248e-07 -1.6033228500094756 -4.453992119432097 -8.692659926497376 175.8325319261867 102.99170547519341 -21.852709537202458 177.30250233837438 -3.172093548993277e-06 5.264706885762213e-06 130.25998912968862 0.0 0.0 0.0 -102.64672595410025 -27.60298928639657 -178.10041118157235 -1.3243337241635143e-06 3.886486262238376e-06 -113.98923693576562 0.0 0.0 0.0
-9.606809616088867 2.6882474422454834 -4.730684757232666 -0.4131931717493997 -6.21764879415098 -15.779274608535212 0.7284858332425934 8.974492872556286 -9.297048028439269 2.4079065835282396 20.873869384966756 -0.3052896770087199 -1.5902773407317582e-15 3.9756933518293955e-16 3.9756933518293955e-16 1.743912682085017 6.25832067722381 8.715171783335702 4.092517506191903 25.11646004620974 -4.157354351128441 -2.069018577211012e-33 -9.939233379573489e-17 -2.385416011097637e-15 1.875653513165415 11.024345049244479 -0.5678433618393716 -1.1806096359500204e-07 4.777532527760401e-07 -2.319224275750858 -4.766574280521671 -8.033962892420213 174.87047362011737 105.67610106347013 -27.710998899971386 -172.6973021196665 -4.020116556715969e-06 -3.0665332098261954e-06 129.36822905362703 -1.3241718894150476e-31 6.3611093629270335e-15 2.3854160110976376e-15 -105.01712253868587 -32.63466909740265 176.450443619859 3.3208999653243196e-06 5.3659172899744005e-06 -118.05968055124386 6.3611093629270335e-15 0.0 0.0
-9.688398361206055 2.871518135070801 -4.815197944641113 -0.39497867460471253 -6.496315660346477 -15.716748639485552 0.6667986763878816 8.804425200093407 -9.502088036809479 2.3615889040383493 20.866744598140702 -0.06989032045407792 -5.517382872562698e-33 -3.1805546814635168e-15 -1.987846675914698e-16 1.7537604702062066 6.029346725379666 8.949611428027406 4.2562915116017495 25.201477631934853 -4.500080569428952 5.17254644302753e-34 9.939233379573489e-17 -5.963540027744093e-16 2.0980373819574836 11.100934275412376 -0.6213004439507827 -4.508903651698186e-08 -2.9346636275257695e-07 -2.937530397673434 -4.347526905016997 -7.271634077634871 176.00396500457515 112.20203661314551 -37.759192520965726 -161.23419056814566 3.2152339267580735e-06 7.929486197884264e-07 127.56162606051791 -1.7655625192200634e-31 -6.361109362927033e-15 -3.1805546814635164e-15 -118.38335327068509 -40.357299257976514 156.55574770593466 -2.592798082673527e-06 5.519176869830903e-06 -125.85862720831885 -6.3611093629270335e-15 6.3611093629270335e-15 3.1805546814635168e-15
-9.704564094543457 2.923374652862549 -4.8323893547058105 -0.4094028911684181 -6.5110334303661235 -15.707890307939136 0.6827774936350168 8.727159028854576 -9.520473029641032 2.3599388611751166 20.864449428973842 -0.017704812153974014 -1.5902773407317584e-15 -1.9310840053969444e-32 1.3914926731402886e-15 1.7844290277325758 5.93705338768223 8.970563839624617 4.28015893381604 25.21666852007829 -4.592761795838249 -1.5902773407317584e-15 -3.1805546814635168e-15 3.9756933518293955e-16 2.134901686183086 11.054205966715449 -0.6259353323947463 1.4816892345995416e-07 5.957699917963284e-07 -3.038300009097668 -4.2245809808650066 -7.101137319592704 176.35567777879356 112.6035463836881 -38.26504414785897 -160.70742954913644 -3.3286713467551693e-06 -1.5400137238809668e-06 127.50537341330403 0.0 0.0 0.0 -118.57883457975552 -40.04714244381451 156.0579198421322 -4.314737124299011e-06 1.3040723730107003e-06 -126.9906171652966 0.0 0.0 -6.3611093629270335e-15
-9.710135459899902 2.9459404945373535 -4.839707374572754 -0.42176434734299717 -6.518726691987378 -15.685416995838317 0.6995069175724201 8.716862018300366 -9.533755977965347 2.353955405182582 20.848790251134073 0.007756288948038807 0.0 0.0 1.789062008323228e-15 1.8050742417482672 5.9023715530281615 8.978908740999014 4.304124562838872 25.22726172280348 -4.640857424728281 5.17254644302753e-34 9.93923337957349e-17 -5.963540027744094e-16 2.147464241329884 11.016588910385877 -0.6252114303318075 -5.3933101032234765e-08 -3.901087332593238e-08 -3.088684572730203 -4.192162179680277 -7.013259890723335 176.40852043577905 112.76022852291786 -38.31970049306617 -160.4656510088589 3.3030547621308172e-06 1.2310135171446914e-06 127.7306066652271 0.0 0.0 3.1805546814635168e-15 -118.438795402791 -39.73462381941357 156.0816191518634 -1.3560230142017159e-06 -2.7333007377848753e-06 -127.49299799468037 0.0 0.0 0.0
-9.712935447692871 2.9602549076080322 -4.843571662902832 -0.4266515951545893 -6.527941250806814 -15.664643219726216 0.705589806585762 8.718663281406311 -9.549671691510124 2.348445666789996 20.84339976610987 0.021219699452450294 0.0 0.0 7.951386703658792e-16 1.8165605279786954 5.890282882181072 8.992612420269927 4.32587631604224 25.227041940793814 -4.666126611119475 0.0 0.0 1.1927080055488188e-15 2.1436960983950564 10.988901094819601 -0.6221651399653413 -3.323806889290675e-07 2.2881592594938324e-07 -3.1248293312669864 -4.177087585497872 -6.9498178958115755 176.38764593989882 112.85397280197344 -38.28445118821455 -160.3141497602436 1.8136328970556737e-06 6.46532240672106e-07 128.15796525795525 -6.361109362927033e-15 -6.361109362927033e-15 -7.951386703658796e-16 -118.27029899814575 -39.42625759111508 156.191028300096 -7.621999172018087e-07 9.97625666194668e-07 -127.94026529650053 0.0 0.0 0.0
-9.715497970581055 2.9715728759765625 -4.844631195068359 -0.4271141411574437 -6.537981977417784 -15.64243595185321 0.7133567664748033 8.730346260006439 -9.568208366547438 2.336910937035569 20.8385575724298 0.028833649992888694 -1.5902773407317584e-15 -3.578124016646457e-15 -1.1927080055488188e-15 1.829682284238887 5.891893042015655 9.008557035788785 4.337034527731999 25.222402513954545 -4.682192641924722 0.0 0.0 5.963540027744093e-16 2.129506389340715 10.95855978867411 -0.6178136809710558 -6.216659687471645e-07 7.088349859802223e-08 -3.153258484843685 -4.167233438933611 -6.899300590815502 176.31719091262252 112.86112966621874 -38.030991243659045 -160.22258766889263 1.0635935413774515e-06 3.195322274449044e-06 129.086252647867 0.0 0.0 2.3854160110976368e-15 -118.18839927889748 -39.33629300884945 156.25436621622927 3.664204750967884e-06 -3.7592064332873174e-07 -128.16522036662903 -6.3611093629270335e-15 0.0 0.0
-9.712142944335938 2.982266664505005 -4.839828014373779 -0.43107886265254397 -6.5553459202030755 -15.628857621239094 0.7105592116106307 8.756289157932333 -9.593277704837837 2.3154838919425593 20.83518199814499 0.04258782005348574 0.0 0.0 -2.5842006786891076e-15 1.832905895581726 5.912244690150082 9.033498834624904 4.350227933285853 25.213528706771136 -4.691029031904733 -1.5902773407317584e-15 -3.1805546814635168e-15 -1.9878466759146985e-16 2.118550442855953 10.927346258300707 -0.6135566198139036 -4.4358117512104003e-07 -3.2915798177825006e-07 -3.178805552912829 -4.154394736112204 -6.850153440579953 176.29117379260455 112.89659215985098 -37.98191768461003 -160.12206732942158 1.5851182897902271e-06 1.026376047762417e-06 129.7192051025138 0.0 0.0 0.0 -118.16458401272406 -39.32831520639319 156.28449137467953 -4.340723300605707e-06 2.2294454800465877e-06 -128.3629397156032 -6.361109362927033e-15 0.0 0.0
-9.712786674499512 2.9912407398223877 -4.8382720947265625 -0.4490859766670253 -6.571335462194242 -15.628942795772327 0.7169559016344593 8.776006166388045 -9.61735820168411 2.3061646646046268 20.8402302133774 0.05317357126711666 1.5902773407317582e-15 3.1805546814635168e-15 4.572047354603805e-15 1.8455230486964544 5.927991015397153 9.050507589632263 4.369325058121311 25.214669281030147 -4.708398847519748 1.5902773407317584e-15 -9.93923337957349e-17 -3.975693351829396e-16 2.1277915986967817 10.89007091896943 -0.6118966091121406 9.809929339817515e-08 1.4160382636406866e-07 -3.213434673088744 -4.131209308513717 -6.778318389137662 176.32274747960042 113.10666273566086 -38.26537960986408 -159.88756932328928 -2.538458701513832e-06 1.5343113245268834e-06 129.88365926181524 0.0 0.0 7.951386703658792e-16 -118.26690590078245 -39.33308478331956 156.12921263190793 1.5316309130661263e-06 2.1343024300344545e-06 -128.5988345545508 1.7655625192200634e-31 6.361109362927033e-15 -3.1805546814635164e-15
-9.716196060180664 2.999283790588379 -4.837372779846191 -0.48107168419582036 -6.59107622717985 -15.637761395071362 0.7330126490389439 8.801210702114414 -9.654481663341503 2.289810684754957 20.85054728116752 0.06518156544103088 -1.5902773407317584e-15 -3.975693351829396e-16 5.963540027744094e-16 1.8662465925581786 5.952969640290429 9.073994939013776 4.397877799826151 25.21921964652603 -4.7314341140676355 0.0 0.0 1.9878466759146975e-16 2.1504395513746415 10.85500352524117 -0.6119013389861875 5.39252710052877e-07 -1.335493769632477e-07 -3.254790842824401 -4.111537427242035 -6.702989439152974 176.39461953561138 113.34729227161787 -38.62701417408423 -159.637283659426 3.0653469908001563e-07 3.0947531970522746e-06 129.71366887216266 0.0 0.0 0.0 -118.43667498401794 -39.37139045532725 155.90020332371722 1.047200048836334e-07 -2.715321337512023e-06 -128.8306446530677 6.361109362927033e-15 6.361109362927033e-15 1.5902773407317578e-15
-9.721842765808105 3.003793716430664 -4.836528778076172 -0.5054824710342217 -6.609050687552767 -15.644599724932021 0.7421469373828241 8.831831892668873 -9.675621286874694 2.30220300938252 20.84711085395755 0.06541223881200366 1.5902773407317584e-15 3.975693351829396e-16 3.975693351829396e-16 1.8907377580829419 5.97549906629535 9.08430781771718 4.4046335443107685 25.233221607990117 -4.745847882322184 -4.965644585306429e-32 3.1805546814635168e-15 1.7890620083232284e-15 2.1649788142568545 10.83504302047112 -0.61167703024769 2.2165169472833404e-07 2.7247048771707504e-07 -3.2884968228291616 -4.089459623587522 -6.663479465382933 176.4392687380948 113.49294089306872 -38.945595431746185 -159.48442774385472 9.615570623431092e-06 -2.785116713553451e-06 129.04294508452756 0.0 0.0 0.0 -118.55556795615111 -39.39931972379282 155.72898153280474 -3.3950703468981727e-06 3.20253168634423e-06 -129.02508731988337 0.0 0.0 1.5902773407317584e-15
-9.72318172454834 3.011721611022949 -4.8365020751953125 -0.517909246240338 -6.618687144942673 -15.632012414237867 0.7593346642708537 8.851202867692333 -9.693496769410729 2.2741634970966147 20.86228781996544 0.07258448651877421 -1.5902773407317582e-15 -3.862168010793889e-32 2.7829853462805768e-15 1.897522202959695 5.991777068766041 9.092287921968975 4.448400343458031 25.233471421159063 -4.76711422491778 3.4483642953516864e-34 -9.93923337957349e-17 3.975693351829396e-16 2.176508215733662 10.791923058354055 -0.6107977142055684 -2.721023253457885e-07 1.53321158313512e-07 -3.327893479611365 -4.080363371407596 -6.617811503537179 176.44959625301038 113.65599726726495 -39.04860919014447 -159.24191768162888 1.230469366081927e-06 9.442273097621519e-07 129.72810388814608 0.0 0.0 0.0 -118.64535638687754 -39.42208056568878 155.60422754852453 1.6372221267325888e-06 -2.4788694808777545e-07 -129.35428140556178 6.3611093629270335e-15 -6.3611093629270335e-15 1.5902773407317588e-15
-9.730644226074219 3.013878583908081 -4.838451862335205 -0.5313212632154205 -6.614869324620067 -15.622757350190094 0.7781499286983867 8.86612816031374 -9.69184611375673 2.288925509119147 20.861904980711255 0.06334820756585456 9.379550883356588e-32 3.1805546814635176e-15 -3.379339349054987e-15 1.9281144110794508 5.998478808759273 9.085672383179315 4.449539079649086 25.23642792639039 -4.777328711843847 1.7241821476758432e-34 9.939233379573492e-17 -1.9878466759146985e-16 2.1883721566798684 10.748470108654422 -0.6091789216966873 5.3659816415900165e-08 9.492803675253055e-08 -3.3498009912987805 -4.080840629189669 -6.592160231706807 176.43495066822862 113.82034997432791 -39.086436301372764 -159.0073401896973 -1.7485926897331792e-07 -3.2015446343586173e-06 130.41715405200222 0.0 0.0 -3.1805546814635168e-15 -118.70387902150438 -39.44395204255033 155.52661577266642 -1.2910837377869136e-07 -7.364986184352033e-06 -129.69524578979636 0.0 -6.3611093629270335e-15 0.0
-9.734724998474121 3.018611192703247 -4.839483737945557 -0.5335338808186741 -6.616254112477656 -15.609743883959379 0.7847163356402912 8.887868945456738 -9.686184852874426 2.2970699958136818 20.861151647258016 0.06508867359423345 -4.827710013492361e-33 -3.975693351829396e-16 -1.3914926731402886e-15 1.945513300370975 6.00925493645629 9.078669191764332 4.451137296162306 25.238562164188 -4.796510751595092 0.0 0.0 -5.963540027744094e-16 2.1906474520314108 10.706686655228326 -0.6078812054207047 -3.074534260108113e-07 -2.670746273157514e-07 -3.3792518698576894 -4.06834456368059 -6.5668665779085265 176.43299537187886 113.98486389033572 -39.11232468870347 -158.7309274285808 -2.5836604851477074e-06 4.940663338232376e-07 131.18889384145086 0.0 0.0 -3.1805546814635168e-15 -118.7879701401579 -39.452755014396836 155.42338905161571 -7.332523440211665e-07 2.6452924954497684e-06 -130.16888739582785 0.0 0.0 -1.5902773407317584e-15
-9.738934516906738 3.024934768676758 -4.840139389038086 -0.5280951774919763 -6.619014839407482 -15.594922144382252 0.7873594477393454 8.90266826264468 -9.676122514868112 2.3051764275466247 20.855132108970338 0.06587238960438607 -1.5902773407317582e-15 4.4139062980501586e-32 -3.1805546814635164e-15 1.9526930310406339 6.012699326500247 9.066413767785575 4.4565497777861305 25.245365452061478 -4.811982826812546 -2.1379858631180455e-32 3.0811623476677814e-15 7.951386703658791e-16 2.1875285842756056 10.673466766012506 -0.6063237994583369 1.1060293245996453e-07 -1.693383422001589e-07 -3.4081793450643123 -4.055601368616522 -6.558045339872225 176.42166384407776 114.15130275079316 -39.19587802016617 -158.4592901871606 3.47373719166974e-06 3.3736175308396282e-06 131.693925671555 -8.827812596100317e-32 6.3611093629270335e-15 1.5902773407317584e-15 -118.86529944456218 -39.44512939661614 155.31841516329732 3.0748923823242985e-06 3.1304811761600823e-06 -130.62671094251894 0.0 0.0 1.5902773407317584e-15
-9.745099067687988 3.0303993225097656 -4.842297077178955 -0.5308847430096892 -6.621233079517177 -15.590222663206088 0.790232938033913 8.916641822771561 -9.670935511558975 2.319788422738287 20.847944580335536 0.06281407428786043 -5.517382872562698e-33 -3.180554681463516e-15 -1.9878466759146975e-16 1.963307857052304 6.018981337255172 9.056363211879209 4.464231239995857 25.249531767794494 -4.821642415580592 1.6552148617688095e-32 -3.1805546814635164e-15 5.963540027744093e-16 2.1978291075918834 10.644894122262864 -0.6062618872246032 -2.0063461455141932e-07 -3.6700738694887455e-08 -3.4367684123808178 -4.048531392181447 -6.550564335277755 176.43332121182527 114.38814965603655 -39.38358491327139 -158.14593466340477 3.082135744893836e-06 8.649610655057965e-07 131.8796360046913 -6.3611093629270335e-15 2.648343778830095e-31 -4.770832022195275e-15 -118.97244606277701 -39.44561096978189 155.1633171662417 -5.048912228561868e-06 -3.155264005791052e-06 -130.95523536882695 8.827812596100317e-32 6.361109362927033e-15 -1.5902773407317582e-15
-9.752963066101074 3.033351421356201 -4.844738483428955 -0.5502548359068881 -6.628842305376683 -15.591406823838069 0.8042827612925344 8.933634992061831 -9.68553726969951 2.324449729751357 20.84299619379312 0.06427788059263657 -1.5902773407317584e-15 -3.586298867165754e-32 2.5842006786891076e-15 1.9874740979265435 6.03176004919726 9.056077056639614 4.472382044832449 25.253416727743257 -4.839205978301026 1.5902773407317582e-15 9.939233379573487e-17 -5.963540027744093e-16 2.225535647013394 10.627008933341394 -0.6094949264977367 -7.479742984592133e-08 3.0276037570028637e-07 -3.4742054142584338 -4.044828670200467 -6.5436141072144425 176.43134285969865 114.72526172751296 -39.696936106295496 -157.76774544005423 2.076952200074581e-06 -2.8614865903701224e-06 131.77802792990084 0.0 6.361109362927033e-15 0.0 -119.15213555021796 -39.485102092095396 154.92582467220245 1.4411698284947501e-06 2.665194547858328e-06 -131.18937691586274 6.3611093629270335e-15 -6.3611093629270335e-15 -1.590277340731758e-15
-9.758673667907715 3.039487361907959 -4.847728252410889 -0.5634305084222574 -6.631081974602038 -15.587539674209912 0.8113183230318112 8.94144901157537 -9.688157507137255 2.337411824261661 20.818948271987228 0.06143568254537436 0.0 0.0 -2.782985346280577e-15 1.999706157583993 6.0278203345382835 9.048258883939381 4.480071011001435 25.256348412749816 -4.843938853864243 0.0 0.0 5.963540027744094e-16 2.2519089286158223 10.623042278541169 -0.6126617643930968 4.225851730817722e-07 -9.037315887886913e-08 -3.5077516940268194 -4.037317221274777 -6.560536038591099 176.41862521694563 114.93575173906449 -40.001447524986126 -157.55142480631338 -2.819247510087517e-06 -5.605901571559139e-07 131.3966710260044 0.0 6.3611093629270335e-15 0.0 -119.29892338343953 -39.51318820024397 154.7494374707485 4.841546711231707e-06 2.857144222069758e-06 -131.33949513275851 0.0 0.0 0.0
-9.764693260192871 3.04190731048584 -4.849792957305908 -0.5641975439033763 -6.626418086850785 -15.581584357309662 0.8134150439522924 8.944370916177675 -9.672392211306098 2.3598147481575564 20.80003088566051 0.055792043799570895 1.5902773407317582e-15 -5.793252016190833e-32 -4.174478019420865e-15 2.0054794588743117 6.025550684244647 9.026361795425863 4.479196788791747 25.24941350183752 -4.852105872679289 0.0 0.0 -9.93923337957349e-16 2.2696435876425847 10.622633572323558 -0.6168967387933517 1.3513258015693601e-08 -1.6751651096051585e-07 -3.526204877344244 -4.040991986684832 -6.57505188630132 176.4079310535322 115.12673531616363 -40.15883002201687 -157.34473609893357 3.6656288854716684e-07 -2.246346971484183e-06 131.27420166019354 0.0 0.0 4.770832022195275e-15 -119.36155623520739 -39.47896549295628 154.63970292123093 1.8171629184360283e-06 -2.422649602145771e-07 -131.3782937332583 0.0 0.0 0.0
-9.769087791442871 3.046440601348877 -4.852541446685791 -0.5513285863426421 -6.6140971121304135 -15.567203746020652 0.807623898658092 8.934913132922398 -9.64361995118419 2.3815824502952787 20.776381618037433 0.04996093181445135 0.0 0.0 -1.1927080055488188e-15 2.0040968344089873 6.0068677996897 8.997684607833946 4.469136700150373 25.239077460360594 -4.849057090448684 3.4483642953516864e-34 9.939233379573489e-17 -3.9756933518293955e-16 2.2799741348865608 10.627560271283443 -0.619999728024391 1.0818009188485215e-07 -1.6408154430327415e-07 -3.534783171558856 -4.047729882679441 -6.593161208208033 176.41068806415515 115.2725179159311 -40.24663813605123 -157.17388146900018 -1.0670608943299659e-06 -1.7778764477780637e-06 131.2626409036147 -6.3611093629270335e-15 8.827812596100317e-32 -1.5902773407317584e-15 -119.37660020198031 -39.414079476070974 154.6071456223209 -6.810948863943466e-06 1.7967256213827498e-06 -131.32089893538298 0.0 0.0 -1.5902773407317584e-15
-9.770425796508789 3.0508713722229004 -4.853726387023926 -0.5304228635289259 -6.608016394838387 -15.55502221781046 0.7981633848318871 8.925285424491152 -9.622663542279746 2.3828597555542985 20.754468446810307 0.05460537097146755 0.0 0.0 4.373262687012335e-15 1.9910619717839941 5.994500184437019 8.978075352148696 4.471324476412639 25.220762826406325 -4.855989038894992 -2.8449005436651414e-32 3.2799470152592518e-15 9.93923337957349e-16 2.275395709915666 10.643734932687707 -0.6227770313856897 6.515895957503154e-08 6.721071833956675e-07 -3.5428763273826953 -4.0453385693344 -6.6135429317872685 176.3869022174485 115.42508367796968 -40.28435267827837 -156.9933797867904 3.6053510535829366e-06 4.5984081119253996e-07 131.3213300590293 6.3611093629270335e-15 6.3611093629270335e-15 -3.1805546814635168e-15 -119.41676372828323 -39.37043954557352 154.5444121767874 -1.7550095075989173e-06 -1.6708071637289064e-06 -131.28123571209838 0.0 0.0 -3.1805546814635168e-15
-9.774458885192871 3.051281690597534 -4.8559417724609375 -0.5140085192453755 -6.592643323492965 -15.539067742054492 0.7930565919370437 8.912826589883853 -9.59064526431067 2.404954553740281 20.719235770154274 0.04226317055070269 -1.5902773407317588e-15 3.862168010793889e-32 -2.782985346280578e-15 1.9841126891923742 5.973638737777067 8.946675058348923 4.459269397503036 25.203784843182095 -4.84799968195912 -3.4483642953516864e-34 -9.939233379573489e-17 -3.9756933518293955e-16 2.279844232477185 10.66478620486541 -0.6271250502883565 2.018615639537976e-07 -4.7626550649516923e-07 -3.540761896370222 -4.052085763962646 -6.641287242074397 176.38571103655858 115.4669331041112 -40.25691288547169 -156.93895804688984 2.500104956399205e-07 5.57003984921298e-07 131.2487993007033 -6.3611093629270335e-15 -8.827812596100317e-32 1.5902773407317584e-15 -119.41046972688882 -39.31492994595648 154.55385207480026 -3.36701572542666e-06 -2.239286014071263e-06 -131.17808371399295 6.3611093629270335e-15 0.0 0.0
-9.779606819152832 3.0508980751037598 -4.858406066894531 -0.501208367024414 -6.574097682789405 -15.526797121783192 0.7899672594801755 8.898734336033241 -9.54823314696039 2.4319072072293415 20.685781201400943 0.03184021094933737 -1.5902773407317582e-15 -5.793252016190833e-32 4.174478019420865e-15 1.9835668899309467 5.952681527955453 8.906801127009984 4.442697362288108 25.184732113011812 -4.842218953439758 3.1805546814635168e-15 3.1805546814635168e-15 3.975693351829395e-16 2.2924772596058185 10.686599737681147 -0.6321909691368406 8.638468779014459e-08 -4.115937947032328e-07 -3.529525699295892 -4.074445195875843 -6.6623257480664755 176.35997866735894 115.44529413488372 -40.19833588194736 -156.97016083398208 -4.662861170746495e-06 -2.885509415779216e-06 131.05659991622196 0.0 0.0 -1.5902773407317584e-15 -119.40328799781506 -39.27135408008363 154.57134132693253 1.0266834583741929e-06 -1.613473774133469e-07 -131.00040939437795 0.0 6.361109362927033e-15 0.0
-9.78083610534668 3.055767774581909 -4.859975814819336 -0.49596905552253534 -6.566467652025061 -15.518141411663962 0.7894491785737449 8.883500649276428 -9.544703002581699 2.43899511121832 20.658615286606413 0.03110074935299877 0.0 0.0 1.1927080055488186e-15 1.9807611414308663 5.932335194321275 8.900906610356508 4.434128704393126 25.174972928963495 -4.837678619736721 -1.8966003624434274e-33 -9.93923337957349e-17 -2.1866313435061676e-15 2.298352451087606 10.725227480308794 -0.6358234489808106 -4.606022848695989e-07 -1.368108282870535e-07 -3.524012828206951 -4.073052627844029 -6.704758932381271 176.3572777014347 115.45862891319271 -40.19330024880657 -156.99265660530813 1.3841284568482327e-06 -1.5201924546536973e-06 130.72839150797842 0.0 0.0 0.0 -119.38241243879307 -39.210440636762385 154.58292225866967 2.8574085312130352e-06 3.2380454268136056e-06 -130.8140461774984 6.3611093629270335e-15 -6.3611093629270335e-15 1.5902773407317588e-15
-9.785561561584473 3.0556743144989014 -4.863683700561523 -0.5003954569855625 -6.55521566999823 -15.51834327873266 0.7947532126149722 8.870873448721582 -9.53408125686542 2.4521711205501933 20.628482075113915 0.021266091039784527 -1.5902773407317588e-15 3.1805546814635176e-15 -1.391492673140289e-15 1.9818151987358223 5.914599148323921 8.882347852933213 4.4335048116714235 25.167611666260488 -4.828834678133768 0.0 0.0 1.9878466759146985e-16 2.3200599165581184 10.77091957098318 -0.6420880638675535 1.5437008006915407e-07 -6.219591892835736e-08 -3.5123488122907904 -4.0809636223282375 -6.755788237430724 176.3451163940213 115.33370268569432 -40.14646916404954 -157.16455013423476 1.4469778228858792e-06 2.5354748490552374e-06 130.05282661689094 0.0 0.0 0.0 -119.36707395718749 -39.166627608580576 154.60523794186668 -3.524475560201475e-06 -2.172757609879828e-06 -130.55096073801948 -6.3611093629270335e-15 0.0 0.0
-9.789271354675293 3.0531022548675537 -4.8664937019348145 -0.49605091853470473 -6.542141275980447 -15.517809210223454 0.7929265029403618 8.855491686737714 -9.509041514855465 2.4822849437025782 20.597421777494063 0.007042189600514624 -1.7241821476758433e-32 -3.975693351829396e-16 -4.969616689786745e-15 1.9809902568593825 5.89953014395311 8.852305480700787 4.4148686274758715 25.155433445390017 -4.819286574360893 0.0 0.0 5.963540027744093e-16 2.334243881676796 10.81351800306684 -0.6486956241652291 1.663038143730153e-08 1.8038752554612228e-07 -3.4941804185025083 -4.0998096894088025 -6.803860568651268 176.3545387110376 115.18802225151313 -40.037646987597476 -157.3571309120668 -1.5493289921435817e-06 -1.0227368814419621e-06 129.40850187918934 0.0 6.3611093629270335e-15 0.0 -119.31398139729835 -39.11707676426069 154.6487693808932 2.4810627233138315e-06 4.97968449762059e-06 -130.24008410688498 0.0 0.0 0.0
-9.791847229003906 3.0527262687683105 -4.868573188781738 -0.4882486332990832 -6.528889939890841 -15.508476735209841 0.7934461444068482 8.841522120305882 -9.492712170937631 2.494881831485716 20.58024762290439 -0.0011554473630266005 -1.5902773407317582e-15 -4.689775441678294e-32 3.379339349054986e-15 1.9772733877451611 5.8802618616334845 8.83520192572451 4.4145086968140035 25.145621834980858 -4.812916432768978 0.0 0.0 5.963540027744094e-16 2.3397408990500876 10.83653650944232 -0.651477440343737 2.776823180487589e-07 -5.722080809575224e-07 -3.4823472956975206 -4.107191381919899 -6.829276243212263 176.34950197063685 115.20294527341338 -40.00262863427377 -157.34124727359597 -1.6678438724753967e-06 -5.615659079760885e-07 129.24259251713607 6.3611093629270335e-15 6.3611093629270335e-15 -3.1805546814635168e-15 -119.3029445557552 -39.10095308252608 154.66278583442514 -1.8574887860998628e-06 -3.814703375067717e-06 -130.0236834808943 -6.3611093629270335e-15 0.0 0.0
-9.793375968933105 3.0528085231781006 -4.870913505554199 -0.47542772282164286 -6.513718097925067 -15.503065865153898 0.7905494668880036 8.824188157998638 -9.469250478017281 2.510554902196245 20.55603784291889 -0.009374737610183766 1.5902773407317584e-15 0.0 0.0 1.9726031681527771 5.861012503239844 8.81477763199886 4.405379723835881 25.130982384774168 -4.80682966874534 -3.862168010793889e-32 -3.1805546814635168e-15 -1.3914926731402886e-15 2.33786074309081 10.860304364510181 -0.6539110001966868 -3.6220320519496886e-08 -1.9260172147935915e-07 -3.466686583810374 -4.1100927467923825 -6.860309729777852 176.37321269098473 115.20219662980789 -39.93290645200848 -157.33229146900499 5.722444164524689e-06 4.431071789246683e-06 129.06247894030338 0.0 0.0 1.5902773407317584e-15 -119.27188374623817 -39.052521315787835 154.6899549102839 4.5263736732784827e-07 -2.4019354648114577e-06 -129.8587405981717 2.648343778830095e-31 -6.3611093629270335e-15 4.770832022195275e-15
-9.794675827026367 3.0522985458374023 -4.871950149536133 -0.4642229308776008 -6.502493149141912 -15.495280531578702 0.7878903385254322 8.815577675164688 -9.452485432965817 2.523444681535019 20.539271910581878 -0.016131508531522138 -1.5902773407317582e-15 1.9310840053969444e-32 -1.3914926731402884e-15 1.965849538270435 5.849856747494671 8.801051578598676 4.40528879073596 25.11854708320254 -4.803738003655047 1.5902773407317584e-15 3.1805546814635168e-15 -3.975693351829396e-16 2.340901438898741 10.87875606514851 -0.6567402321129164 -3.361362465377422e-08 1.1196918558341677e-07 -3.4601765261750126 -4.116064804020808 -6.887599094728552 176.3758780979324 115.25792672413854 -39.90653957051423 -157.2562965305703 7.708945251817704e-07 6.117254099591795e-07 129.02290732518767 0.0 0.0 0.0 -119.28139997128885 -39.02579818975503 154.6783600844725 1.2438296521664261e-06 1.1004936561175325e-06 -129.8256419159481 0.0 0.0 3.1805546814635168e-15
-9.79581356048584 3.0539674758911133 -4.87307071685791 -0.45287644996552084 -6.491546307822745 -15.485672120890586 0.7831823785979899 8.808695592521811 -9.435886158392195 2.5398632282625164 20.518156214022554 -0.02591498970376408 0.0 0.0 -9.93923337957349e-16 1.958185107334888 5.840202562056627 8.786410215001428 4.402183578226878 25.10281628969149 -4.796570266879988 -1.5902773407317584e-15 3.0811623476677818e-15 -2.1866313435061676e-15 2.3445439802847043 10.896084172337293 -0.6599356287292787 -2.2614997779483808e-07 2.6745551083171865e-07 -3.453412333326092 -4.124263023366686 -6.917345445522922 176.38792280679496 115.27189980396416 -39.86764095456741 -157.21816744346592 -3.7760348600797247e-07 -2.794078632685075e-06 128.9710376634887 0.0 6.361109362927033e-15 0.0 -119.28811134964262 -39.01027744491212 154.66511790153595 5.554800137643696e-07 -5.608820662473012e-07 -129.7662969497464 0.0 0.0 1.5902773407317584e-15
-9.795515060424805 3.0572116374969482 -4.872752666473389 -0.44358004511037985 -6.491662076644607 -15.474384309491967 0.776239619884744 8.81024366156975 -9.431075695422296 2.5529059925424753 20.506371581099305 -0.026258791112231457 3.1805546814635168e-15 0.0 0.0 1.9491949964749864 5.840330973265654 8.782811747466614 4.409911123598764 25.08941553003638 -4.801114501321437 1.5902773407317588e-15 -2.758691436281349e-32 -1.9878466759146984e-15 2.3461364086564074 10.910453492452447 -0.6622624228819906 -1.2267582723462798e-07 3.325705404502659e-07 -3.460723496209241 -4.1338022540677555 -6.934629149554819 176.42638058327626 115.3441426297863 -39.88620531384229 -157.12149177427128 2.0683635207894425e-06 -7.867670248486352e-07 128.8770528974404 0.0 0.0 -4.7708320221952736e-15 -119.33003951327638 -39.010196584716375 154.59812045217032 -5.939242201461028e-07 1.207451130732443e-06 -129.67446609236015 0.0 0.0 -1.5902773407317584e-15
-9.798053741455078 3.0608928203582764 -4.87348747253418 -0.4531141113189144 -6.490557181223756 -15.479527466157638 0.7851595211237058 8.81196257739201 -9.437008473223527 2.551736817286095 20.496043618264093 -0.030153007518540092 -1.5902773407317584e-15 3.975693351829396e-16 -5.963540027744094e-16 1.9502706513122785 5.844712179282446 8.7840275144118 4.420515447063424 25.08251709973358 -4.803479297142227 1.5902773407317582e-15 -3.0811623476677814e-15 -1.9878466759146972e-16 2.3599323326525616 10.932942122610738 -0.6663299140022011 3.5817595858500775e-07 5.438694872552989e-07 -3.4562212444668097 -4.132548190938128 -6.957738522833462 176.42655295231813 115.39927014962724 -39.91640929795079 -157.05637841769112 -2.2474931544324743e-06 -1.4442676669151123e-06 128.65645853685896 0.0 0.0 3.1805546814635168e-15 -119.37364002393952 -39.012019463454685 154.53360863039646 -3.573234007156587e-07 -1.2584168703704142e-06 -129.5511670120901 -6.361109362927032e-15 6.361109362927032e-15 3.531125038440127e-31
-9.800041198730469 3.0603456497192383 -4.874213218688965 -0.45930156180667037 -6.494294081851997 -15.483392552251468 0.7862848160271495 8.818373287379629 -9.444155513125317 2.560671654318048 20.481046900678606 -0.03369036905676285 0.0 0.0 -1.3914926731402886e-15 1.9502144199341955 5.851169422560285 8.78296442142506 4.416278056329566 25.08142303538728 -4.80285390723864 0.0 0.0 3.975693351829397e-16 2.374310655563153 10.96526415804685 -0.6716730623048751 2.1072553800992415e-07 -1.368366140140239e-08 -3.453391595937547 -4.1395543611032535 -6.985765098396066 176.41209697494372 115.36415254724726 -39.915852038325475 -157.07523416794274 -1.7211185436571326e-06 -8.464960333937627e-07 128.192570725966 -8.827812596100317e-32 6.361109362927032e-15 1.590277340731758e-15 -119.42268819185671 -39.03463672446953 154.45747432208904 -2.474474318511094e-06 1.3331311337832073e-06 -129.34116832213803 0.0 0.0 1.590277340731758e-15
-9.80087947845459 3.0605812072753906 -4.874817848205566 -0.45373454535804103 -6.489169959496492 -15.482298051128009 0.7816277055474927 8.819718990202162 -9.434689320395792 2.577482412650301 20.460324216453348 -0.04187428155024353 -4.827710013492361e-33 3.9756933518293955e-16 1.3914926731402884e-15 1.948577521819814 5.851366777053756 8.773810896966896 4.41235347158108 25.065964313526084 -4.799173379358369 5.17254644302753e-34 -9.939233379573492e-17 5.963540027744096e-16 2.374889134825479 10.985747462764337 -0.674353202273852 2.5661861584913426e-07 -7.205081871080625e-07 -3.44257516012765 -4.1440581435056 -7.011547004480258 176.43459714909605 115.33005157078176 -39.863599343136634 -157.0986981453357 -1.2644222969103976e-07 1.3615799839304756e-06 127.89251907489957 0.0 0.0 4.770832022195275e-15 -119.42943807103829 -39.05065961783958 154.43021902024216 -6.1460528100948855e-06 -5.9570703444445e-07 -129.11564574907314 6.3611093629270335e-15 -8.827812596100317e-32 -1.5902773407317584e-15
-9.799710273742676 3.0628983974456787 -4.8741021156311035 -0.43869348229890387 -6.485275330301247 -15.47614924994658 0.7706913635190216 8.81629608565623 -9.433291843360978 2.588082515992386 20.44245308583314 -0.04363454020515911 -1.5902773407317584e-15 3.9756933518293955e-16 3.776908684237926e-15 1.93616496905085 5.847373336101348 8.778114699451027 4.419899976859032 25.04487562478349 -4.794833340062756 1.5902773407317582e-15 -1.3793457181406746e-32 -9.939233379573488e-16 2.368853486566265 11.007770680509818 -0.6752265012337553 4.123605883016381e-08 2.423688653593853e-08 -3.4375128809421813 -4.1524953375752345 -7.03968405821737 176.4536991725588 115.26424768622056 -39.7724315229312 -157.15134883787007 1.31038012048536e-06 -4.854697656487022e-06 127.55748075625063 0.0 0.0 1.5902773407317584e-15 -119.440560129765 -39.05856259157807 154.4132208478618 -2.1102009468577043e-06 4.257642938590761e-07 -128.9011498180589 0.0 0.0 1.5902773407317584e-15
-9.803630828857422 3.064441680908203 -4.876667022705078 -0.4411204267978545 -6.473042869668404 -15.480092244337433 0.783730577035536 8.807389534314302 -9.42455243213074 2.5886373532480147 20.410589161364474 -0.0483608099525599 0.0 0.0 -9.93923337957349e-16 1.9394335142099361 5.8398535026132885 8.771551550323785 4.411149379465479 25.02235973722593 -4.787117130131181 1.5902773407317584e-15 -3.1805546814635168e-15 1.9878466759146985e-16 2.3678038655683844 11.03743789349076 -0.6763562623807056 5.358023208892524e-07 6.694326426503049e-08 -3.41831348702456 -4.136862321140006 -7.079091581488733 176.46677841917068 115.13419222542802 -39.62728878572961 -157.277026237951 -3.010789541693153e-06 -4.6381581339561846e-06 127.16781670198772 -3.1805546814635168e-15 -6.3611093629270335e-15 7.95138670365879e-16 -119.43417570240105 -39.06506784894653 154.41500278930192 -8.488564795977529e-07 2.21213618275601e-06 -128.67590513967875 0.0 0.0 -4.770832022195275e-15
-9.806304931640625 3.060934066772461 -4.879474639892578 -0.4381250513589071 -6.455809717006335 -15.483032479958744 0.7897983521928931 8.792385772726616 -9.405836488731536 2.6003009636120016 20.38477345471925 -0.05991293817015806 0.0 0.0 3.975693351829396e-16 1.9452400803598464 5.827293396213004 8.75187609824515 4.395603511796704 25.005704339729768 -4.776792347554777 5.689801087330283e-33 -3.2799470152592518e-15 1.987846675914698e-16 2.377079940013934 11.054779083569231 -0.6798193900998436 -3.3252440419910177e-07 1.4006428341990152e-07 -3.3950092684142428 -4.158463350061058 -7.104369585661836 176.5021484100022 114.99030176458152 -39.42570906237601 -157.42041662038997 -3.0426784601714804e-06 3.200392495798764e-06 126.81494348958849 3.1805546814635168e-15 2.2069531490250793e-32 7.951386703658792e-16 -119.45980840647599 -39.10853172677937 154.40254512980096 2.1854257747724305e-06 2.3647302524920737e-06 -128.42847436172454 0.0 0.0 3.1805546814635168e-15
-9.806856155395508 3.0595192909240723 -4.880122661590576 -0.4260995153781816 -6.4414919002944 -15.487187422807002 0.7773807789545527 8.771507208894066 -9.40875603632959 2.617065515154859 20.35776853255901 -0.06293512499985413 0.0 0.0 2.385416011097637e-15 1.9309474583684723 5.810023313341164 8.761805327522135 4.3863948790449925 24.97828315464828 -4.759192778777945 -1.5902773407317584e-15 0.0 0.0 2.370041785114924 11.07683410213988 -0.6794673097424221 -3.995535786829629e-07 4.0003696586774563e-07 -3.3768260244040325 -4.159792069926702 -7.128323963732313 176.4956129055214 114.81737478640851 -39.2305609456033 -157.58380319469123 9.83276066813178e-07 -3.575997829227714e-07 126.53767875488488 -3.1805546814635168e-15 -1.1034765745125397e-31 3.975693351829396e-15 -119.46213280058588 -39.11346742687207 154.38024657418393 1.3841626658127158e-06 -2.4254123965113607e-06 -128.2453779824793 6.3611093629270335e-15 0.0 0.0
-9.808212280273438 3.0575637817382812 -4.882808685302734 -0.41780010894786784 -6.420646303019068 -15.491497925400957 0.7837018916015082 8.737515728498298 -9.406884667885045 2.612095172353143 20.33469356028244 -0.06468019071886015 0.0 0.0 2.385416011097637e-15 1.9282126907443902 5.783278648033184 8.760678210133618 4.372401452789196 24.95861014197631 -4.7480438787871 -8.620910738379216e-34 9.93923337957349e-17 9.93923337957349e-16 2.3680864678729097 11.08881921486417 -0.6799754713149528 -8.010239508675746e-08 -2.638187459036755e-07 -3.3564965152404094 -4.164294578136308 -7.141464207856893 176.50598895334102 114.67671613127943 -39.060149623810915 -157.72382089113236 -3.137328267620126e-06 6.704868213908636e-07 126.32737860231705 6.3611093629270335e-15 1.3241718894150476e-31 2.3854160110976376e-15 -119.48552772078371 -39.13706776074208 154.34960712400365 1.4649827296419443e-06 -1.5493048961460883e-06 -128.08356665019446 0.0 0.0 -1.5902773407317584e-15
-9.811543464660645 3.051363229751587 -4.886112689971924 -0.4176797481638718 -6.394083727241982 -15.495301321813669 0.7923616807619397 8.700374461501301 -9.406640733641634 2.6202522072603496 20.30333723603566 -0.07536018709465808 0.0 0.0 7.951386703658794e-16 1.9386086212649831 5.74927277524012 8.757943104081855 4.358578665288284 24.940651277841443 -4.737849148911943 1.5902773407317584e-15 -2.4828222926532145e-32 -1.7890620083232284e-15 2.374187178772331 11.094011847812997 -0.6816145781679273 8.279405898390784e-08 -8.539946078501804e-09 -3.333826807457511 -4.16761684289547 -7.147287292598042 176.52858972960166 114.57253927167352 -38.913129962734985 -157.84284320366243 -2.9585986177545394e-06 3.665588503213289e-06 126.21029514581895 3.1805546814635164e-15 6.361109362927033e-15 -1.7655625192200634e-31 -119.51708841649751 -39.15945001048671 154.3255696493363 -2.778608635762241e-06 6.394636025243705e-06 -127.9767525503437 1.7655625192200634e-31 6.3611093629270335e-15 -3.1805546814635168e-15
-9.812366485595703 3.0512444972991943 -4.8874430656433105 -0.4081308599750191 -6.372822626040458 -15.495925420452332 0.7961917095399935 8.657265716705142 -9.418597870532949 2.613964457820817 20.288527364220865 -0.07660087265004108 -3.1805546814635168e-15 2.782985346280577e-15 5.963540027744095e-16 1.9334079707782972 5.713473265205947 8.77430503926926 4.352630631334456 24.91952191414257 -4.723265143149963 -1.7241821476758432e-34 9.93923337957349e-17 1.987846675914698e-16 2.3641924826807226 11.101347920948578 -0.6792065228377077 -7.093901251154018e-08 2.2143428285225407e-08 -3.319652667066356 -4.152507432836033 -7.150818051065092 176.53772417860722 114.47600973695738 -38.80571052829492 -157.94623608543532 5.0228135728867725e-06 1.1602276781383062e-06 126.13255483448486 3.1805546814635168e-15 0.0 0.0 -119.53995126034067 -39.164640080697524 154.2895177044298 -2.7259964670122555e-06 3.048461516079793e-06 -127.88997946181662 0.0 0.0 -6.361109362927033e-15
-9.814393997192383 3.0458157062530518 -4.890511989593506 -0.40530001293203394 -6.34810484966839 -15.497813809129402 0.8045351824164214 8.615791212570782 -9.417091641597153 2.619030058540572 20.274678404768906 -0.08598951984903558 5.517382872562698e-32 -3.1805546814635168e-15 1.987846675914698e-15 1.9364513663946499 5.678754749260531 8.772995936853524 4.34346059731295 24.902570930705362 -4.709329331997392 1.5902773407317582e-15 3.1805546814635164e-15 -9.939233379573488e-16 2.3653188714320046 11.100680202690386 -0.678718432442523 -1.797002049277877e-07 1.460999421805328e-08 -3.301100174176622 -4.154183465089276 -7.153252063573348 176.55532984143156 114.40219762380627 -38.71519877161274 -158.03518531356167 6.917222672093497e-06 -1.6321911997590368e-06 126.10275736173797 -6.361109362927032e-15 -1.7655625192200634e-31 3.180554681463516e-15 -119.55724327992282 -39.17242013207748 154.2743901503929 5.149696180463834e-07 -8.121711606830221e-08 -127.83269733572482 0.0 0.0 3.1805546814635168e-15
-9.816178321838379 3.040766954421997 -4.892621994018555 -0.40245945784935305 -6.327550937820299 -15.496494735322957 0.815848802873103 8.576145220410416 -9.419537140125449 2.6136360575539026 20.26647992235267 -0.09384936091548995 1.1034765745125397e-32 -3.1805546814635168e-15 3.975693351829396e-16 1.9382066818569217 5.645081077431492 8.77487033565493 4.3354320098755235 24.892729286017893 -4.695794181205593 1.5902773407317584e-15 -5.517382872562698e-33 -3.975693351829396e-16 2.3656826093680117 11.099873475558931 -0.6782280201739166 -2.855893262782501e-07 -2.7414904947684116e-07 -3.2865067833186155 -4.159802186643479 -7.154298739712948 176.57585935715574 114.34508472441237 -38.64333121233909 -158.10595079668067 2.0500222154184894e-06 -3.3864949803370836e-06 126.09723534628854 8.827812596100317e-32 -6.3611093629270335e-15 1.5902773407317584e-15 -119.56973579287153 -39.16921526329964 154.26547169953042 1.217713154961321e-06 1.9381430301955987e-06 -127.78913873818104 0.0 0.0 0.0
-9.816864013671875 3.0376925468444824 -4.894758224487305 -0.39720669819077686 -6.307773766343384 -15.492082167538245 0.8172863468524718 8.538920205395392 -9.410474390778207 2.623456523274109 20.25976313415702 -0.10537392055736113 0.0 0.0 9.93923337957349e-16 1.9350132962860696 5.611467970124935 8.768421382098268 4.327906028857462 24.882739958417858 -4.680088090223985 -4.4139062980501586e-32 -3.1805546814635168e-15 -1.5902773407317584e-15 2.363712390352676 11.095748174576515 -0.6774177577399193 -3.3635601688830153e-07 1.7376517348608064e-07 -3.277671864790744 -4.163901897326704 -7.161456988754037 176.5863654286794 114.28763175954073 -38.587840780496094 -158.1727988389409 4.8716420777064764e-06 3.3502598927185555e-06 126.10105912975659 -6.3611093629270335e-15 -2.648343778830095e-31 4.770832022195275e-15 -119.57313563798965 -39.168241809153855 154.2677254214285 -3.225314441141136e-06 -3.756415489300546e-06 -127.76493427187644 0.0 0.0 0.0
-9.817712783813477 3.0324885845184326 -4.8963093757629395 -0.39337539309788017 -6.291161670211464 -15.486058906196027 0.8176346722009118 8.511920352649893 -9.393606469434825 2.6505207056022453 20.247771571316246 -0.1195182715867641 0.0 0.0 -1.9878466759146972e-16 1.9338142533098142 5.584455275371666 8.75550316507782 4.321227399480938 24.870731151553656 -4.6694070712841445 -1.5902773407317582e-15 -3.034560579909484e-32 2.1866313435061676e-15 2.3628788896555033 11.092711609086502 -0.6770003086901762 -2.911806073211095e-07 -7.04311478004775e-08 -3.2705214605577018 -4.168609554375638 -7.17015408017059 176.594004260473 114.2545436303918 -38.54942720915436 -158.2153246069811 4.253242646882514e-06 -1.70449547142709e-06 126.12552439653467 0.0 0.0 -7.951386703658792e-16 -119.58186462270527 -39.1649716144376 154.2669404865646 6.363496232362927e-06 -2.96274461629482e-06 -127.75010251804227 0.0 0.0 -3.1805546814635168e-15
-9.817581176757812 3.031308650970459 -4.898575782775879 -0.38687153671728935 -6.275877080966545 -15.481702859334996 0.8190625567783759 8.48330887984488 -9.368423754974842 2.6632492426252865 20.246202065823546 -0.12793866943862656 0.0 0.0 -4.572047354603804e-15 1.935377792240166 5.5574070122683565 8.73438885630565 4.298670626245496 24.866386565865614 -4.655269790252535 6.948454055133648e-32 3.0811623476677818e-15 -2.5842006786891076e-15 2.3575948149716273 11.089094099026067 -0.6754914837363923 3.808742404707832e-07 2.3754857964182014e-07 -3.265555842693292 -4.17275228449439 -7.181581693834929 176.59921612108758 114.22595392213977 -38.52179749393838 -158.24950269513988 1.1951999345726377e-06 2.283253648219284e-06 126.15108636831944 4.4139062980501586e-32 -6.3611093629270335e-15 7.951386703658792e-16 -119.58734852306101 -39.16030915030452 154.27283096962216 -3.4977270007914342e-06 2.310741029138199e-06 -127.76416639005032 0.0 0.0 3.1805546814635168e-15
